[
    {
        "Altitude(m)": 553475.1958230804,
        "Argument of Periapsis(deg)": 0.0,
        "Eccentricity": 0.0,
        "Inclination(deg)": 53.0,
        "Latitude(deg)": 13.004230829858656,
        "Longitude(deg)": -80.00241128830329,
        "Mean Anomaly(deg)": 16.363599999999998,
        "RAAN(deg)": 10.0,
        "Satellite Name": "Starlink Shell 1 45",
        "Satellite Number": 45,
        "Semi-Major Axis(m)": 6931778.249405717,
        "Time(s)": 0
    },
    {
        "Altitude(m)": 553482.4464498637,
        "Argument of Periapsis(deg)": 0.00034857847951123687,
        "Eccentricity": 0.0,
        "Inclination(deg)": 53.0,
        "Latitude(deg)": 13.500172321078669,
        "Longitude(deg)": -79.64616312130178,
        "Mean Anomaly(deg)": 16.990431203556717,
        "RAAN(deg)": 9.999481229922528,
        "Satellite Name": "Starlink Shell 1 45",
        "Satellite Number": 45,
        "Semi-Major Axis(m)": 6931778.249405717,
        "Time(s)": 10
    },
    {
        "Altitude(m)": 553492.2293782857,
        "Argument of Periapsis(deg)": 0.0006971569590224737,
        "Eccentricity": 0.0,
        "Inclination(deg)": 53.0,
        "Latitude(deg)": 13.995466028610833,
        "Longitude(deg)": -79.28826892077674,
        "Mean Anomaly(deg)": 17.61726240711343,
        "RAAN(deg)": 9.998962459845055,
        "Satellite Name": "Starlink Shell 1 45",
        "Satellite Number": 45,
        "Semi-Major Axis(m)": 6931778.249405717,
        "Time(s)": 20
    },
    {
        "Altitude(m)": 553504.5172580212,
        "Argument of Periapsis(deg)": 0.0010457354385337105,
        "Eccentricity": 0.0,
        "Inclination(deg)": 53.0,
        "Latitude(deg)": 14.490084284984972,
        "Longitude(deg)": -78.92866134621626,
        "Mean Anomaly(deg)": 18.24409361067015,
        "RAAN(deg)": 9.998443689767582,
        "Satellite Name": "Starlink Shell 1 45",
        "Satellite Number": 45,
        "Semi-Major Axis(m)": 6931778.249405717,
        "Time(s)": 30
    },
    {
        "Altitude(m)": 553519.281606193,
        "Argument of Periapsis(deg)": 0.0013943139180449475,
        "Eccentricity": 0.0,
        "Inclination(deg)": 53.0,
        "Latitude(deg)": 14.983999050157275,
        "Longitude(deg)": -78.5672718199518,
        "Mean Anomaly(deg)": 18.870924814226864,
        "RAAN(deg)": 9.997924919690108,
        "Satellite Name": "Starlink Shell 1 45",
        "Satellite Number": 45,
        "Semi-Major Axis(m)": 6931778.249405717,
        "Time(s)": 40
    },
    {
        "Altitude(m)": 553536.4928242032,
        "Argument of Periapsis(deg)": 0.0017428923975561844,
        "Eccentricity": 0.0,
        "Inclination(deg)": 53.0,
        "Latitude(deg)": 15.477181895066806,
        "Longitude(deg)": -78.20403150874786,
        "Mean Anomaly(deg)": 19.497756017783576,
        "RAAN(deg)": 9.997406149612635,
        "Satellite Name": "Starlink Shell 1 45",
        "Satellite Number": 45,
        "Semi-Major Axis(m)": 6931778.249405717,
        "Time(s)": 50
    },
    {
        "Altitude(m)": 553556.1202151147,
        "Argument of Periapsis(deg)": 0.002091470877067421,
        "Eccentricity": 0.0,
        "Inclination(deg)": 53.0,
        "Latitude(deg)": 15.969603984845186,
        "Longitude(deg)": -77.83887079253185,
        "Mean Anomaly(deg)": 20.124587221340292,
        "RAAN(deg)": 9.996887379535163,
        "Satellite Name": "Starlink Shell 1 45",
        "Satellite Number": 45,
        "Semi-Major Axis(m)": 6931778.249405717,
        "Time(s)": 60
    },
    {
        "Altitude(m)": 553578.13200154,
        "Argument of Periapsis(deg)": 0.0024400493565786582,
        "Eccentricity": 0.0,
        "Inclination(deg)": 53.0,
        "Latitude(deg)": 16.46123606166657,
        "Longitude(deg)": -77.47171873315978,
        "Mean Anomaly(deg)": 20.751418424897015,
        "RAAN(deg)": 9.99636860945769,
        "Satellite Name": "Starlink Shell 1 45",
        "Satellite Number": 45,
        "Semi-Major Axis(m)": 6931778.249405717,
        "Time(s)": 70
    },
    {
        "Altitude(m)": 553602.495344064,
        "Argument of Periapsis(deg)": 0.002788627836089895,
        "Eccentricity": 0.0,
        "Inclination(deg)": 53.0,
        "Latitude(deg)": 16.9520484272253,
        "Longitude(deg)": -77.10250405611525,
        "Mean Anomaly(deg)": 21.37824962845373,
        "RAAN(deg)": 9.995849839380217,
        "Satellite Name": "Starlink Shell 1 45",
        "Satellite Number": 45,
        "Semi-Major Axis(m)": 6931778.249405717,
        "Time(s)": 80
    },
    {
        "Altitude(m)": 553629.176360181,
        "Argument of Periapsis(deg)": 0.0031372063156011316,
        "Eccentricity": 0.0,
        "Inclination(deg)": 53.0,
        "Latitude(deg)": 17.442010924829304,
        "Longitude(deg)": -76.73115461942645,
        "Mean Anomaly(deg)": 22.005080832010435,
        "RAAN(deg)": 9.995331069302743,
        "Satellite Name": "Starlink Shell 1 45",
        "Satellite Number": 45,
        "Semi-Major Axis(m)": 6931778.249405717,
        "Time(s)": 90
    },
    {
        "Altitude(m)": 553658.140143714,
        "Argument of Periapsis(deg)": 0.0034857847951123688,
        "Eccentricity": 0.0,
        "Inclination(deg)": 53.0,
        "Latitude(deg)": 17.93109292109676,
        "Longitude(deg)": -76.35759688270444,
        "Mean Anomaly(deg)": 22.631912035567154,
        "RAAN(deg)": 9.994812299225272,
        "Satellite Name": "Starlink Shell 1 45",
        "Satellite Number": 45,
        "Semi-Major Axis(m)": 6931778.249405717,
        "Time(s)": 100
    },
    {
        "Altitude(m)": 553689.3507847378,
        "Argument of Periapsis(deg)": 0.003834363274623606,
        "Eccentricity": 0.0,
        "Inclination(deg)": 53.0,
        "Latitude(deg)": 18.419263287243563,
        "Longitude(deg)": -75.98175688921269,
        "Mean Anomaly(deg)": 23.258743239123866,
        "RAAN(deg)": 9.9942935291478,
        "Satellite Name": "Starlink Shell 1 45",
        "Satellite Number": 45,
        "Semi-Major Axis(m)": 6931778.249405717,
        "Time(s)": 110
    },
    {
        "Altitude(m)": 553722.7713899832,
        "Argument of Periapsis(deg)": 0.004182941754134842,
        "Eccentricity": 0.0,
        "Inclination(deg)": 53.0,
        "Latitude(deg)": 18.90649037995035,
        "Longitude(deg)": -75.60355973526094,
        "Mean Anomaly(deg)": 23.88557444268058,
        "RAAN(deg)": 9.993774759070327,
        "Satellite Name": "Starlink Shell 1 45",
        "Satellite Number": 45,
        "Semi-Major Axis(m)": 6931778.249405717,
        "Time(s)": 120
    },
    {
        "Altitude(m)": 553758.3641036719,
        "Argument of Periapsis(deg)": 0.004531520233646079,
        "Eccentricity": 0.0,
        "Inclination(deg)": 53.0,
        "Latitude(deg)": 19.39274202179716,
        "Longitude(deg)": -75.22292903984129,
        "Mean Anomaly(deg)": 24.5124056462373,
        "RAAN(deg)": 9.993255988992855,
        "Satellite Name": "Starlink Shell 1 45",
        "Satellite Number": 45,
        "Semi-Major Axis(m)": 6931778.249405717,
        "Time(s)": 130
    },
    {
        "Altitude(m)": 553796.0901288551,
        "Argument of Periapsis(deg)": 0.0048800987131573164,
        "Eccentricity": 0.0,
        "Inclination(deg)": 53.0,
        "Latitude(deg)": 19.877985481253784,
        "Longitude(deg)": -74.83978792742634,
        "Mean Anomaly(deg)": 25.13923684979401,
        "RAAN(deg)": 9.99273721891538,
        "Satellite Name": "Starlink Shell 1 45",
        "Satellite Number": 45,
        "Semi-Major Axis(m)": 6931778.249405717,
        "Time(s)": 140
    },
    {
        "Altitude(m)": 553835.9097491503,
        "Argument of Periapsis(deg)": 0.005228677192668553,
        "Eccentricity": 0.0,
        "Inclination(deg)": 53.0,
        "Latitude(deg)": 20.36218745221593,
        "Longitude(deg)": -74.4540584982383,
        "Mean Anomaly(deg)": 25.76606805335073,
        "RAAN(deg)": 9.992218448837908,
        "Satellite Name": "Starlink Shell 1 45",
        "Satellite Number": 45,
        "Semi-Major Axis(m)": 6931778.249405717,
        "Time(s)": 150
    },
    {
        "Altitude(m)": 553877.7823509377,
        "Argument of Periapsis(deg)": 0.00557725567217979,
        "Eccentricity": 0.0,
        "Inclination(deg)": 53.0,
        "Latitude(deg)": 20.84531403307557,
        "Longitude(deg)": -74.0656612989201,
        "Mean Anomaly(deg)": 26.392899256907445,
        "RAAN(deg)": 9.991699678760437,
        "Satellite Name": "Starlink Shell 1 45",
        "Satellite Number": 45,
        "Semi-Major Axis(m)": 6931778.249405717,
        "Time(s)": 160
    },
    {
        "Altitude(m)": 553921.6664459711,
        "Argument of Periapsis(deg)": 0.0059258341516910265,
        "Eccentricity": 0.0,
        "Inclination(deg)": 53.0,
        "Latitude(deg)": 21.327330705315486,
        "Longitude(deg)": -73.6745163065446,
        "Mean Anomaly(deg)": 27.01973046046416,
        "RAAN(deg)": 9.991180908682962,
        "Satellite Name": "Starlink Shell 1 45",
        "Satellite Number": 45,
        "Semi-Major Axis(m)": 6931778.249405717,
        "Time(s)": 170
    },
    {
        "Altitude(m)": 553967.5196943805,
        "Argument of Periapsis(deg)": 0.006274412631202263,
        "Eccentricity": 0.0,
        "Inclination(deg)": 53.0,
        "Latitude(deg)": 21.808202311619013,
        "Longitude(deg)": -73.28054240028725,
        "Mean Anomaly(deg)": 27.646561664020872,
        "RAAN(deg)": 9.99066213860549,
        "Satellite Name": "Starlink Shell 1 45",
        "Satellite Number": 45,
        "Semi-Major Axis(m)": 6931778.249405717,
        "Time(s)": 180
    }
]